NOAA 15                 
1 25338U 98030A   25172.80161664  .00000192  00000+0  96580-4 0  9993
2 25338  98.5342 197.6382 0009500 329.8455  30.2178 14.26986082410147
DMSP 5D-3 F16 (USA 172) 
1 28054U 03048A   25172.83954343  .00000003  00000+0  25302-4 0  9998
2 28054  99.0120 188.7854 0008376  87.6120  85.4024 14.14358225118526
NOAA 18                 
1 28654U 05018A   25172.79630483  .00000062  00000+0  55860-4 0  9991
2 28654  98.8424 252.1354 0015379  95.1378 265.1550 14.13613897 35478
METEOSAT-9 (MSG-2)      
1 28912U 05049B   25171.79723795  .00000129  00000+0  00000+0 0  9995
2 28912   8.5351  57.6209 0002135   3.3415 180.9628  1.00273214  3380
EWS-G1 (GOES 13)        
1 29155U 06018A   25172.45105532 -.00000182  00000+0  00000+0 0  9999
2 29155   3.5930  80.8552 0060675 266.6541 261.6313  0.98794252 39680
DMSP 5D-3 F17 (USA 191) 
1 29522U 06050A   25172.80545104  .00000015  00000+0  29962-4 0  9992
2 29522  98.7381 181.7690 0010345  11.8898 348.2518 14.14837512961450
FENGYUN 3A              
1 32958U 08026A   25172.57954617  .00000071  00000+0  54290-4 0  9995
2 32958  98.6483 116.0285 0009880  87.2222 273.0085 14.19448925884358
NOAA 19                 
1 33591U 09005A   25172.80473651  .00000145  00000+0  10140-3 0  9994
2 33591  98.9968 237.5777 0013123 333.3602  26.6894 14.13379832843832
GOES 14                 
1 35491U 09033A   25172.62333601 -.00000059  00000+0  00000+0 0  9991
2 35491   0.7470  87.9459 0002255  65.9640 232.2982  1.00272738 58548
DMSP 5D-3 F18 (USA 210) 
1 35951U 09057A   25172.88180172  .00000224  00000+0  13934-3 0  9996
2 35951  98.8597 150.3743 0010753 189.2926 170.8050 14.14639963808628
EWS-G2 (GOES 15)        
1 36411U 10008A   25172.59180932  .00000048  00000+0  00000+0 0  9998
2 36411   0.3441  85.4542 0002571 112.1802 346.7324  1.00269991 56026
COMS 1                  
1 36744U 10032A   25172.49487860 -.00000337  00000+0  00000+0 0  9995
2 36744   3.8897  79.8692 0000814   6.1088 130.2248  1.00271506 47472
FENGYUN 3B              
1 37214U 10059A   25172.85946620  .00000053  00000+0  51114-4 0  9992
2 37214  99.0118 211.3609 0023033 125.9066  46.7451 14.14733342756512
SUOMI NPP               
1 37849U 11061A   25172.80607577  .00000047  00000+0  43388-4 0  9997
2 37849  98.7581 111.9389 0000391 322.9961  37.1188 14.19541349707304
