[
  {
    "OBJECT_NAME": "NOAA 15",
    "OBJECT_ID": "1998-030A",
    "EPOCH": "2025-06-21T19:14:19.677696",
    "MEAN_MOTION": 14.26986082,
    "ECCENTRICITY": 0.00095,
    "INCLINATION": 98.5342,
    "RA_OF_ASC_NODE": 197.6382,
    "ARG_OF_PERICENTER": 329.8455,
    "MEAN_ANOMALY": 30.2178,
    "EPHEMERIS_TYPE": 0,
    "CLASSIFICATION_TYPE": "U",
    "NORAD_CAT_ID": 25338,
    "ELEMENT_SET_NO": 999,
    "REV_AT_EPOCH": 41014,
    "BSTAR": 9.658e-05,
    "MEAN_MOTION_DOT": 1.92e-06,
    "MEAN_MOTION_DDOT": 0
  },
  {
    "OBJECT_NAME": "DMSP 5D-3 F16 (USA 172)",
    "OBJECT_ID": "2003-048A",
    "EPOCH": "2025-06-21T20:08:56.552352",
    "MEAN_MOTION": 14.14358225,
    "ECCENTRICITY": 0.0008376,
    "INCLINATION": 99.012,
    "RA_OF_ASC_NODE": 188.7854,
    "ARG_OF_PERICENTER": 87.612,
    "MEAN_ANOMALY": 85.4024,
    "EPHEMERIS_TYPE": 0,
    "CLASSIFICATION_TYPE": "U",
    "NORAD_CAT_ID": 28054,
    "ELEMENT_SET_NO": 999,
    "REV_AT_EPOCH": 11852,
    "BSTAR": 2.5302e-05,
    "MEAN_MOTION_DOT": 3e-08,
    "MEAN_MOTION_DDOT": 0
  },
  {
    "OBJECT_NAME": "NOAA 18",
    "OBJECT_ID": "2005-018A",
    "EPOCH": "2025-06-21T19:06:40.737312",
    "MEAN_MOTION": 14.13613897,
    "ECCENTRICITY": 0.0015379,
    "INCLINATION": 98.8424,
    "RA_OF_ASC_NODE": 252.1354,
    "ARG_OF_PERICENTER": 95.1378,
    "MEAN_ANOMALY": 265.155,
    "EPHEMERIS_TYPE": 0,
    "CLASSIFICATION_TYPE": "U",
    "NORAD_CAT_ID": 28654,
    "ELEMENT_SET_NO": 999,
    "REV_AT_EPOCH": 3547,
    "BSTAR": 5.586e-05,
    "MEAN_MOTION_DOT": 6.2e-07,
    "MEAN_MOTION_DDOT": 0
  },
  {
    "OBJECT_NAME": "METEOSAT-9 (MSG-2)",
    "OBJECT_ID": "2005-049B",
    "EPOCH": "2025-06-20T19:08:01.358880",
    "MEAN_MOTION": 1.00273214,
    "ECCENTRICITY": 0.0002135,
    "INCLINATION": 8.5351,
    "RA_OF_ASC_NODE": 57.6209,
    "ARG_OF_PERICENTER": 3.3415,
    "MEAN_ANOMALY": 180.9628,
    "EPHEMERIS_TYPE": 0,
    "CLASSIFICATION_TYPE": "U",
    "NORAD_CAT_ID": 28912,
    "ELEMENT_SET_NO": 999,
    "REV_AT_EPOCH": 338,
    "BSTAR": 0,
    "MEAN_MOTION_DOT": 1.29e-06,
    "MEAN_MOTION_DDOT": 0
  },
  {
    "OBJECT_NAME": "EWS-G1 (GOES 13)",
    "OBJECT_ID": "2006-018A",
    "EPOCH": "2025-06-21T10:49:31.179648",
    "MEAN_MOTION": 0.98794252,
    "ECCENTRICITY": 0.0060675,
    "INCLINATION": 3.593,
    "RA_OF_ASC_NODE": 80.8552,
    "ARG_OF_PERICENTER": 266.6541,
    "MEAN_ANOMALY": 261.6313,
    "EPHEMERIS_TYPE": 0,
    "CLASSIFICATION_TYPE": "U",
    "NORAD_CAT_ID": 29155,
    "ELEMENT_SET_NO": 999,
    "REV_AT_EPOCH": 3968,
    "BSTAR": 0,
    "MEAN_MOTION_DOT": -1.82e-06,
    "MEAN_MOTION_DDOT": 0
  },
  {
    "OBJECT_NAME": "DMSP 5D-3 F17 (USA 191)",
    "OBJECT_ID": "2006-050A",
    "EPOCH": "2025-06-21T19:19:50.969856",
    "MEAN_MOTION": 14.14837512,
    "ECCENTRICITY": 0.0010345,
    "INCLINATION": 98.7381,
    "RA_OF_ASC_NODE": 181.769,
    "ARG_OF_PERICENTER": 11.8898,
    "MEAN_ANOMALY": 348.2518,
    "EPHEMERIS_TYPE": 0,
    "CLASSIFICATION_TYPE": "U",
    "NORAD_CAT_ID": 29522,
    "ELEMENT_SET_NO": 999,
    "REV_AT_EPOCH": 96145,
    "BSTAR": 2.9962e-05,
    "MEAN_MOTION_DOT": 1.5e-07,
    "MEAN_MOTION_DDOT": 0
  },
  {
    "OBJECT_NAME": "FENGYUN 3A",
    "OBJECT_ID": "2008-026A",
    "EPOCH": "2025-06-21T13:54:32.789088",
    "MEAN_MOTION": 14.19448925,
    "ECCENTRICITY": 0.000988,
    "INCLINATION": 98.6483,
    "RA_OF_ASC_NODE": 116.0285,
    "ARG_OF_PERICENTER": 87.2222,
    "MEAN_ANOMALY": 273.0085,
    "EPHEMERIS_TYPE": 0,
    "CLASSIFICATION_TYPE": "U",
    "NORAD_CAT_ID": 32958,
    "ELEMENT_SET_NO": 999,
    "REV_AT_EPOCH": 88435,
    "BSTAR": 5.429e-05,
    "MEAN_MOTION_DOT": 7.1e-07,
    "MEAN_MOTION_DDOT": 0
  },
  {
    "OBJECT_NAME": "NOAA 19",
    "OBJECT_ID": "2009-005A",
    "EPOCH": "2025-06-21T19:18:49.234464",
    "MEAN_MOTION": 14.13379832,
    "ECCENTRICITY": 0.0013123,
    "INCLINATION": 98.9968,
    "RA_OF_ASC_NODE": 237.5777,
    "ARG_OF_PERICENTER": 333.3602,
    "MEAN_ANOMALY": 26.6894,
    "EPHEMERIS_TYPE": 0,
    "CLASSIFICATION_TYPE": "U",
    "NORAD_CAT_ID": 33591,
    "ELEMENT_SET_NO": 999,
    "REV_AT_EPOCH": 84383,
    "BSTAR": 0.0001014,
    "MEAN_MOTION_DOT": 1.45e-06,
    "MEAN_MOTION_DDOT": 0
  },
  {
    "OBJECT_NAME": "GOES 14",
    "OBJECT_ID": "2009-033A",
    "EPOCH": "2025-06-21T14:57:36.231264",
    "MEAN_MOTION": 1.00272738,
    "ECCENTRICITY": 0.0002255,
    "INCLINATION": 0.747,
    "RA_OF_ASC_NODE": 87.9459,
    "ARG_OF_PERICENTER": 65.964,
    "MEAN_ANOMALY": 232.2982,
    "EPHEMERIS_TYPE": 0,
    "CLASSIFICATION_TYPE": "U",
    "NORAD_CAT_ID": 35491,
    "ELEMENT_SET_NO": 999,
    "REV_AT_EPOCH": 5854,
    "BSTAR": 0,
    "MEAN_MOTION_DOT": -5.9e-07,
    "MEAN_MOTION_DDOT": 0
  },
  {
    "OBJECT_NAME": "DMSP 5D-3 F18 (USA 210)",
    "OBJECT_ID": "2009-057A",
    "EPOCH": "2025-06-21T21:09:47.668608",
    "MEAN_MOTION": 14.14639963,
    "ECCENTRICITY": 0.0010753,
    "INCLINATION": 98.8597,
    "RA_OF_ASC_NODE": 150.3743,
    "ARG_OF_PERICENTER": 189.2926,
    "MEAN_ANOMALY": 170.805,
    "EPHEMERIS_TYPE": 0,
    "CLASSIFICATION_TYPE": "U",
    "NORAD_CAT_ID": 35951,
    "ELEMENT_SET_NO": 999,
    "REV_AT_EPOCH": 80862,
    "BSTAR": 0.00013934,
    "MEAN_MOTION_DOT": 2.24e-06,
    "MEAN_MOTION_DDOT": 0
  },
  {
    "OBJECT_NAME": "EWS-G2 (GOES 15)",
    "OBJECT_ID": "2010-008A",
    "EPOCH": "2025-06-21T14:12:12.325248",
    "MEAN_MOTION": 1.00269991,
    "ECCENTRICITY": 0.0002571,
    "INCLINATION": 0.3441,
    "RA_OF_ASC_NODE": 85.4542,
    "ARG_OF_PERICENTER": 112.1802,
    "MEAN_ANOMALY": 346.7324,
    "EPHEMERIS_TYPE": 0,
    "CLASSIFICATION_TYPE": "U",
    "NORAD_CAT_ID": 36411,
    "ELEMENT_SET_NO": 999,
    "REV_AT_EPOCH": 5602,
    "BSTAR": 0,
    "MEAN_MOTION_DOT": 4.8e-07,
    "MEAN_MOTION_DDOT": 0
  },
  {
    "OBJECT_NAME": "COMS 1",
    "OBJECT_ID": "2010-032A",
    "EPOCH": "2025-06-21T11:52:37.511040",
    "MEAN_MOTION": 1.00271506,
    "ECCENTRICITY": 8.14e-05,
    "INCLINATION": 3.8897,
    "RA_OF_ASC_NODE": 79.8692,
    "ARG_OF_PERICENTER": 6.1088,
    "MEAN_ANOMALY": 130.2248,
    "EPHEMERIS_TYPE": 0,
    "CLASSIFICATION_TYPE": "U",
    "NORAD_CAT_ID": 36744,
    "ELEMENT_SET_NO": 999,
    "REV_AT_EPOCH": 4747,
    "BSTAR": 0,
    "MEAN_MOTION_DOT": -3.37e-06,
    "MEAN_MOTION_DDOT": 0
  },
  {
    "OBJECT_NAME": "FENGYUN 3B",
    "OBJECT_ID": "2010-059A",
    "EPOCH": "2025-06-21T20:37:37.879680",
    "MEAN_MOTION": 14.14733342,
    "ECCENTRICITY": 0.0023033,
    "INCLINATION": 99.0118,
    "RA_OF_ASC_NODE": 211.3609,
    "ARG_OF_PERICENTER": 125.9066,
    "MEAN_ANOMALY": 46.7451,
    "EPHEMERIS_TYPE": 0,
    "CLASSIFICATION_TYPE": "U",
    "NORAD_CAT_ID": 37214,
    "ELEMENT_SET_NO": 999,
    "REV_AT_EPOCH": 75651,
    "BSTAR": 5.1114e-05,
    "MEAN_MOTION_DOT": 5.3e-07,
    "MEAN_MOTION_DDOT": 0
  },
  {
    "OBJECT_NAME": "SUOMI NPP",
    "OBJECT_ID": "2011-061A",
    "EPOCH": "2025-06-21T19:20:44.946528",
    "MEAN_MOTION": 14.19541349,
    "ECCENTRICITY": 3.91e-05,
    "INCLINATION": 98.7581,
    "RA_OF_ASC_NODE": 111.9389,
    "ARG_OF_PERICENTER": 322.9961,
    "MEAN_ANOMALY": 37.1188,
    "EPHEMERIS_TYPE": 0,
    "CLASSIFICATION_TYPE": "U",
    "NORAD_CAT_ID": 37849,
    "ELEMENT_SET_NO": 999,
    "REV_AT_EPOCH": 70730,
    "BSTAR": 4.3388e-05,
    "MEAN_MOTION_DOT": 4.7e-07,
    "MEAN_MOTION_DDOT": 0
  }
]